,stat_idx,oc_idx,x,loc_name,country,Lat,Lon,data_years,CI,Contributor
0,001A,Pxxx,115,Pohnpei-A,Fd St Micronesia,06-59N,158-14E,1969-1971,100,Scripps Inst. Ocean.
1,001B,Pxxx,115,Pohnpei-B,Fd St Micronesia,06-59N,158-15E,1974-2004,98,UH Sea Level Center
2,001C,Pxxx,115,Pohnpei-C,Fd St Micronesia,06-59N,158-12E,2001-2016,91,"Nat. Tidal Ctr., BOM"
3,002A,Pxxx,113,"Tarawa-A,Betio",Rep. of Kiribati,01-22N,172-56E,1974-1983,78,UH Sea Level Center
4,002B,Pxxx,113,"Tarawa-B,Bairiki",Rep. of Kiribati,01-20N,173-01E,1983-1988,98,UH Sea Level Center
5,002C,Pxxx,113,"Tarawa-C,Betio",Rep. of Kiribati,01-22N,172-56E,1988-1997,100,UH Sea Level Center
6,002D,Pxxx,113,"Tarawa-D,Betio",Rep. of Kiribati,01-22N,172-56E,1992-2016,94,"Nat. Tidal Ctr., BOM"
7,003A,Pxxx,169,Baltra-A,Ecuador,00-26S,090-17W,1968-1977,93,National Ocean Service
8,003B,Pxxx,169,Baltra-B,Ecuador,00-26S,090-17W,1985-2017,89,UH Sea Level Center
9,004A,Pxxx,114,Nauru-A,Rep. of Nauru,00-32S,166-54E,1974-1995,95,UH Sea Level Center
10,004B,Pxxx,114,Nauru-B,Rep. of Nauru,00-32S,166-55E,1993-2016,92,"Nat. Tidal Ctr., BOM"
11,005A,Pxxx,112,Majuro-A,Rep. Marshall I.,07-06N,171-22E,1968-1999,92,UH Sea Level Center
12,005B,Pxxx,112,Majuro-B,Rep. Marshall I.,07-07N,171-22E,1993-2016,98,"Nat. Tidal Ctr., BOM"
13,006A,Pxxx,xxx,Enewetok-A,Rep. Marshall I.,11-26N,162-23E,1951-1971,98,Scripps Inst. Ocean.
14,006B,Pxxx,xxx,Enewetok-B,Rep. Marshall I.,11-26N,162-23E,1974-1979,94,UH Sea Level Center
15,007A,Pxxx,120,Malakal-A,Rep. of Belau,07-20N,134-29E,1926-1939,92,Japan Ocean. Data Cen.
16,007B,Pxxx,120,Malakal-B,Rep. of Belau,07-20N,134-28E,1969-2017,96,UH Sea Level Center
17,008A,Pxxx,119,Yap-A,Fd St Micronesia,09-31N,138-08E,1951-1952,100,Scripps Inst. Ocean.
18,008B,Pxxx,119,Yap-B,Fd St Micronesia,09-31N,138-08E,1969-2017,91,UH Sea Level Center
19,009A,Pxxx,066,Honiara-A,Solomon Islands,09-26S,159-57E,1974-1995,98,UH Sea Level Center
20,009B,Pxxx,066,Honiara-B,Solomon Islands,09-25S,159-57E,1994-2016,99,"Nat. Tidal Ctr., BOM"
21,010A,Pxxx,065,Rabaul,Papua New Guinea,04-12S,152-11E,1966-1997,85,UH Sea Level Center
22,011A,Pxxx,146,Christmas-A,Rep. of Kiribati,01-59N,157-29W,1955-1972,89,Scripps Inst. Ocean.
23,011B,Pxxx,146,Christmas-B,Rep. of Kiribati,01-59N,157-28W,1974-2017,91,UH Sea Level Center
24,012A,Pxxx,xxx,Fanning-A,Rep. of Kiribati,03-54N,159-23W,1957-1958,88,Scripps Inst. Ocean.
25,012B,Pxxx,xxx,Fanning-B,Rep. of Kiribati,03-54N,159-23W,1972-1987,95,UH Sea Level Center
26,012C,Pxxx,xxx,Fanning-C,Rep. of Kiribati,03-51N,159-22W,1988-1990,78,UH Sea Level Center
27,013A,Pxxx,145,Kanton-A,Rep. of Kiribati,02-49S,171-43W,1949-1967,100,Scripps Inst. Ocean.
28,013B,Pxxx,145,Kanton-B,Rep. of Kiribati,02-49S,171-43W,1972-2017,82,UH Sea Level Center
29,014A,Pxxx,107,French Frigate-A,USA,23-52N,166-17W,1974-2007,95,UH Sea Level Center
30,014B,Pxxx,107,French Frigate-B,USA,23-52N,166-17W,2007-2016,73,UH Sea Level Center
31,015A,Pxxx,140,Papeete-A,French Polynesia,17-32S,149-34W,1969-1975,91,UH Sea Level Center
32,015B,Pxxx,140,Papeete-B,French Polynesia,17-32S,149-34W,1975-2017,98,UH Sea Level Center
33,016A,Pxxx,138,Rikitea,French Polynesia,23-08S,134-57W,1969-2017,94,UH Sea Level Center
34,017A,Pxxx,xxx,Hiva Oa-A,French Polynesia,09-49S,139-02W,1977-1980,75,UH Sea Level Center
35,018A,Pxxx,122,Suva-A,Fiji,18-08S,178-26E,1972-1997,91,National Ocean Service
36,018B,Pxxx,122,Suva-B,Fiji,18-08S,178-26E,1998-2016,99,"Nat. Tidal Ctr., BOM"
37,019A,Pxxx,123,Noumea,France,22-15S,166-25E,1967-2016,99,UHSLC/SHOM
38,021A,Pxxx,176,Juan Fernandez-A,Chile,33-37S,078-50W,1977-1984,67,UH Sea Level Center
39,021B,Pxxx,176,Juan Fernandez-B,Chile,33-38S,078-50W,1985-2016,88,SHOA
40,022A,Pxxx,137,Easter-A,Chile,27-09S,109-27W,1957-1958,97,SHOA
41,022B,Pxxx,137,Easter-B,Chile,27-09S,109-27W,1962-1963,100,SHOA
42,022C,Pxxx,137,Easter-C,Chile,27-09S,109-26W,1970-2016,85,SHOA
43,023A,Pxxx,139,Rarotonga-A,Cook Islands,21-12S,159-47W,1977-1997,98,UH Sea Level Center
44,023B,Pxxx,139,Rarotonga-B,Cook Islands,21-12S,159-47W,1993-2016,97,"Nat. Tidal Ctr., BOM"
45,024A,Pxxx,143,Penrhyn,Cook Islands,08-59S,158-03W,1977-2017,95,UH Sea Level Center
46,025A,Pxxx,121,Funafuti-A,Tuvalu,08-32S,179-12E,1977-1999,97,UH Sea Level Center
47,025B,Pxxx,121,Funafuti-B,Tuvalu,08-30S,179-13E,1993-2016,97,"Nat. Tidal Ctr., BOM"
48,026A,Pxxx,xxx,"Honolulu,Kewalo",USA,21-18N,157-52W,1978-1986,96,UH Sea Level Center
49,027A,Pxxx,xxx,"Honolulu,Pier 45",USA,21-19N,157-53W,1985-1988,100,UH Sea Level Center
50,028A,Pxxx,118,Saipan-A,N. Mariana Is.,15-13N,145-44E,1938-1940,97,Japan Ocean. Data Cen.
51,028B,Pxxx,118,Saipan-B,N. Mariana Is.,15-14N,145-45E,1978-2017,88,UH Sea Level Center
52,029A,Pxxx,117,Kapingamarangi,Fd St Micronesia,01-06N,154-47E,1978-2017,83,UH Sea Level Center
53,030A,Pxxx,xxx,Santa Cruz,Ecuador,00-45S,090-19W,1978-2017,96,UH Sea Level Center
54,031A,Pxxx,142,Nuku Hiva,French Polynesia,08-56S,140-05W,1982-2017,69,UH Sea Level Center
55,033A,Pxxx,069,Bitung,Indonesia,01-26N,125-11E,1986-2017,48,BAKOSURTANAL
56,034A,Pxxx,161,Cabo San Lucas,Mexico,22-53N,109-55W,1973-2003,81,CICESE
57,035A,Pxxx,177,San Felix,Chile,26-18S,080-07W,1987-2016,85,SHOA
58,036A,Pxxx,160,Guadalupe,Mexico,28-53N,118-18W,1977-1985,75,CICESE
59,037A,Pxxx,xxx,"Pago Bay, Guam",USA Trust,13-26N,144-48E,2004-2016,83,National Ocean Service
60,038A,Pxxx,125,Nuku'alofa,Tonga,21-08S,175-11W,1990-2016,98,"Nat. Tidal Ctr., BOM"
61,039A,Pxxx,xxx,"Kodiak,Alaska",USA,57-44N,152-31W,1975-2016,87,National Ocean Service
62,040A,Pxxx,302,"Adak,Alaska",USA,51-52N,176-38W,1950-2016,92,National Ocean Service
63,041A,Pxxx,102,"Dutch Harbor-A,AK",USA,53-53N,166-32W,1950-1955,100,National Ocean Service
64,041B,Pxxx,102,"Dutch Harbor-B,AK",USA,53-53N,166-32W,1982-2016,97,National Ocean Service
65,043A,Pxxx,xxx,Palmyra-A,USA Trust,05-53N,162-05W,1947-1949,95,National Ocean Service
66,043B,Pxxx,xxx,Palmyra-B,USA Trust,05-53N,162-05W,2012-2017,100,UH Sea Level Center
67,045A,Pxxx,xxx,Jarvis,USA,00-23S,160-02W,1957-1957,27,UH Sea Level Center
68,046A,Pxxx,348,Port Vila-A,Vanuatu,17-44S,168-19E,1977-1982,87,unconfirmed
69,046B,Pxxx,348,Port Vila-B,Vanuatu,17-46S,168-18E,1993-2016,96,"Nat. Tidal Ctr., BOM"
70,047A,Pxxx,103,Chichijima,Japan,27-06N,142-11E,1975-2016,100,Japan Meteor. Agency
71,048A,Pxxx,xxx,Anewa Bay,Papua New Guinea,06-11S,155-53E,1968-1977,85,UH Sea Level Center
72,049A,Pxxx,104,Minamitorishima,Japan,24-18N,153-58E,1997-2016,95,Japan Meteor. Agency
73,050A,Pxxx,106,Midway,USA Trust,28-13N,177-22W,1947-2016,94,National Ocean Service
74,051A,Pxxx,105,Wake,USA Trust,19-17N,166-37E,1950-2016,94,National Ocean Service
75,052A,Pxxx,109,Johnston,USA Trust,16-44N,169-32W,1947-2017,90,UH Sea Level Center
76,053A,Pxxx,149,Guam,USA Trust,13-26N,144-39E,1948-2016,93,National Ocean Service
77,054A,Pxxx,116,Truk,Fd St Micronesia,07-27N,151-51E,1947-1991,89,National Ocean Service
78,055A,Pxxx,111,Kwajalein,Rep. Marshall I.,08-44N,167-44E,1946-2014,98,National Ocean Service
79,056A,Pxxx,144,Pago Pago,USA Trust,14-17S,170-41W,1948-2016,96,National Ocean Service
80,057A,Pxxx,108,Honolulu-A,USA,21-18N,157-52W,1877-1892,32,National Ocean Service
81,057B,Pxxx,108,Honolulu-B,USA,21-18N,157-52W,1905-2016,99,National Ocean Service
82,058A,Pxxx,xxx,Nawiliwili,USA,21-58N,159-21W,1954-2016,99,National Ocean Service
83,059A,Pxxx,xxx,Kahului,USA,20-54N,156-28W,1950-2016,94,National Ocean Service
84,060A,Pxxx,287,Hilo,USA,19-44N,155-04W,1927-2016,83,National Ocean Service
85,061A,Pxxx,xxx,Mokuoloe,USA,21-26N,157-48W,1957-2016,83,National Ocean Service
86,062A,Pxxx,124,Norfolk Island-A,Australia,29-04S,167-57E,1985-1986,98,CSIRO
87,062B,Pxxx,124,Norfolk Island-B,Australia,29-04S,167-56E,1994-1999,100,CSIRO
88,063A,Pxxx,xxx,Wewak,Papua New Guinea,03-34S,143-38E,1984-1994,82,CSIRO
89,064A,Pxxx,xxx,Port Moresby,Papua New Guinea,09-29S,147-08E,1984-1993,98,CSIRO
90,065A,Pxxx,xxx,Manus,Papua New Guinea,02-01S,147-16E,1984-1994,73,CSIRO
91,066A,Pxxx,xxx,Madang,Papua New Guinea,05-12S,145-48E,1984-1998,81,CSIRO
92,067A,Pxxx,xxx,Lae,Papua New Guinea,06-44S,146-59E,1984-1997,83,CSIRO
93,068A,Pxxx,xxx,Kavieng,Papua New Guinea,02-35S,150-48E,1984-1994,95,CSIRO
94,069A,Pxxx,063,Alotau,Papua New Guinea,10-10S,150-27E,1984-1995,62,CSIRO
95,070A,Pxxx,127,Auckland,New Zealand,36-51S,174-46E,1984-1988,100,Royal New Zealand Navy
96,071A,Pxxx,101,Wellington,New Zealand,41-17S,174-47E,1944-2017,97,LINZ
97,072A,Pxxx,129,Bluff,New Zealand,46-36S,168-21E,1984-2017,65,LINZ
98,073A,Pxxx,xxx,Tauranga,New Zealand,37-39S,176-11E,1984-2017,89,LINZ
99,074A,Pxxx,xxx,Westport,New Zealand,41-44S,171-36E,1984-1985,100,Royal New Zealand Navy
100,075A,Pxxx,xxx,Wanganui,New Zealand,39-57S,174-59E,1984-1985,97,Royal New Zealand Navy
101,076A,Pxxx,xxx,Taranaki,New Zealand,39-03S,174-02E,1955-2017,85,LINZ
102,077A,Pxxx,xxx,Nelson,New Zealand,41-16S,173-16E,1984-2017,65,LINZ
103,078A,Pxxx,xxx,Gisborne-A,New Zealand,38-41S,178-02E,1984-1991,86,LINZ
104,078B,Pxxx,xxx,Gisborne-B,New Zealand,38-41S,178-02E,2010-2017,99,LINZ
105,079A,Pxxx,128,Chatham,New Zealand,43-57S,176-34W,2001-2010,51,UH Sea Level Center
106,080A,Pxxx,174,Antofagasta,Chile,23-39S,070-24W,1945-2016,93,SHOA
107,081A,Pxxx,175,Valparaiso,Chile,33-02S,071-38W,1944-2016,86,SHOA
108,082A,Pxxx,182,Acajutla-A,El Salvador,13-35N,089-50W,1962-2001,96,Inst. Geograf. Naciona
109,082B,Pxxx,182,Acajutla-B,El Salvador,13-35N,089-50W,2001-2009,52,Inst. Geograf. Naciona
110,082C,Pxxx,182,Acajutla-C,El Salvador,13-34N,089-50W,2010-2017,97,UH Sea Level Center
111,083A,Pxxx,xxx,Arica,Chile,18-28S,070-20W,1982-1998,98,SHOA
112,084A,Pxxx,xxx,Lobos de Afuera,Peru,06-56S,080-43W,1982-2016,89,DHNM
113,085A,Pxxx,170,Buenaventura,Colombia,03-53N,077-04W,1953-2014,90,IDEAM
114,086A,Pxxx,xxx,La Union-A,El Salvador,13-20N,087-49W,1954-1980,77,National Ocean Service
115,086B,Pxxx,xxx,La Union-B,El Salvador,13-20N,087-49W,2001-2010,74,Inst. Geograf. Naciona
116,087A,Pxxx,167,Quepos-A,Costa Rica,09-24N,084-10W,1961-1994,83,SERMAR
117,087B,Pxxx,167,Quepos-B,Costa Rica,09-26N,084-10W,2009-2017,87,UH Sea Level Center
118,088A,Pxxx,xxx,Caldera,Chile,27-04S,070-50W,1980-1998,97,SHOA
119,089A,Pxxx,xxx,Manta-A,Ecuador,00-57S,080-44W,1979-1981,100,INOCAR
120,089B,Pxxx,xxx,Manta-B,Ecuador,00-56S,080-43W,1990-2012,79,INOCAR
121,090A,Pxxx,162,Socorro,Mexico,18-44N,111-01W,1957-1959,81,CICESE
122,091A,Pxxx,172,La Libertad,Ecuador,02-12S,080-55W,1949-2017,96,INOCAR
123,092A,Pxxx,xxx,Talara-A,Peru,04-35S,081-17W,1950-1965,92,National Ocean Service
124,092B,Pxxx,xxx,Talara-B,Peru,04-35S,081-17W,1988-2014,78,DHNM
125,093A,Pxxx,173,Callao-A,Peru,12-03S,077-09W,1950-1965,98,National Ocean Service
126,093B,Pxxx,173,Callao-B,Peru,12-04S,077-10W,1970-2017,97,DHNM
127,094A,Pxxx,xxx,Matarani-A,Peru,17-00S,072-07W,1954-1964,98,National Ocean Service
128,094B,Pxxx,xxx,Matarani-B,Peru,17-00S,072-07W,1992-2017,88,DHNM
129,096A,Pxxx,xxx,San Juan-A,Peru,15-22S,075-12W,1978-2003,80,DHNM
130,096B,Pxxx,xxx,San Juan-B,Peru,15-22S,075-12W,2003-2014,95,DHNM
131,098A,Pxxx,xxx,Esmeraldas,Ecuador,00-60N,079-39W,1990-2012,93,INOCAR
132,300A,Pxxx,xxx,Naos-A,Panama,08-55N,079-32W,1961-1965,99,Scripps Inst. Ocean.
133,300B,Pxxx,xxx,Naos-B,Panama,08-55N,079-32W,1991-1997,84,National Ocean Service
134,301A,Pxxx,xxx,Puerto Quetzal-A,Guatemala,13-55N,090-47W,1983-1984,90,UH Sea Level Center
135,301B,Pxxx,xxx,Puerto Quetzal-B,Guatemala,13-55N,090-47W,1992-1995,77,UH Sea Level Center
136,301C,Pxxx,xxx,Puerto Quetzal-C,Guatemala,13-55N,090-50W,2001-2002,100,National Ocean Service
137,302A,Pxxx,168,Balboa,Panama,08-58N,079-34W,1907-2017,98,Autoridad Canal Panama
138,303A,Pxxx,171,Tumaco,Colombia,01-49N,078-44W,1951-2014,85,IDEAM
139,304A,Pxxx,xxx,Pto. Armuelles-A,Panama,08-16N,082-52W,1955-1968,95,Inst. Geograf. Nac.
140,304B,Pxxx,xxx,Pto. Armuelles-B,Panama,08-16N,082-52W,1983-2001,94,Inst. Geograf. Nac.
141,305A,Pxxx,xxx,Cedros Island,Mexico,28-06N,115-11W,1976-1989,75,CICESE
142,307A,Pxxx,xxx,San Felipe,Mexico,31-01N,114-49W,1982-1986,52,UNAM
143,308A,Pxxx,xxx,San Quintin,Mexico,30-29N,115-59W,1977-1990,97,CICESE
144,310A,Pxxx,xxx,Bahia Los Angeles,Mexico,28-58N,113-33W,1973-1994,74,CICESE
145,313A,Pxxx,xxx,Catalina-A,USA,33-27N,118-29W,1978-1979,96,Scripps Inst. Ocean.
146,313B,Pxxx,xxx,Catalina-B,USA,33-27N,118-29W,1980-1988,86,Scripps Inst. Ocean.
147,316A,Pxxx,267,"Acapulco-A,Gro.",Mexico,16-50N,099-55W,1952-1995,91,UNAM
148,316B,Pxxx,267,"Acapulco-B,Gro.",Mexico,16-50N,099-55W,1999-2005,88,Secretaria de Marina
149,316C,Pxxx,267,"Acapulco-C,Gro.",Mexico,16-51N,099-51W,2007-2011,100,UH Sea Level Center
150,317A,Pxxx,xxx,Ensenada,Mexico,31-51N,116-38W,1956-1991,84,UNAM
151,318A,Pxxx,xxx,Puerto Madero,Mexico,14-43N,092-26W,1986-1988,99,UNAM
152,319A,Pxxx,xxx,Loreto,Mexico,26-01N,111-22W,1975-1988,73,CICESE
153,320A,Pxxx,293,Cendering,Malaysia,05-16N,103-11E,1984-2015,97,Dept. Survey/Mapping
154,321A,Pxxx,xxx,Johor Baharu,Malaysia,01-28N,103-48E,1983-2013,95,Dept. Survey/Mapping
155,322A,Pxxx,xxx,Kuantan,Malaysia,03-59N,103-26E,1983-2015,99,Dept. Survey/Mapping
156,323A,Pxxx,xxx,Tioman,Malaysia,02-48N,104-08E,1985-2015,97,Dept. Survey/Mapping
157,324A,Pxxx,xxx,Sedili,Malaysia,01-56N,104-07E,1986-2015,98,Dept. Survey/Mapping
158,325A,Pxxx,xxx,Kukup,Malaysia,01-20N,103-27E,1985-2015,98,Dept. Survey/Mapping
159,326A,Pxxx,xxx,Geting,Malaysia,06-14N,102-06E,1986-2015,99,Dept. Survey/Mapping
160,327A,Pxxx,044,Keppel Harbour,Singapore,01-16N,103-49E,1981-1990,99,Port Singapore Auth.
161,328A,Pxxx,039,Ko Lak,Thailand,11-48N,099-49E,1985-2017,95,Naval Hydro. Dept.
162,329A,Pxxx,077,Hong Kong-A,China,22-18N,114-12E,1962-1985,97,Hong Kong Observatory
163,329B,Pxxx,077,Hong Kong-B,China,22-18N,114-13E,1986-2016,99,Hong Kong Observatory
164,330A,Pxxx,xxx,Rosslyn Bay,Australia,23-10S,150-47E,1993-2016,99,"Nat. Tidal Ctr., BOM"
165,331A,Pxxx,058,Brisbane,Australia,27-22S,153-10E,1984-2016,98,"Nat. Tidal Ctr., BOM"
166,332A,Pxxx,059,Bundaberg,Australia,24-46S,152-23E,1984-2016,99,"Nat. Tidal Ctr., BOM"
167,333A,Pxxx,057,Fort Denison,Australia,33-51S,151-14E,1965-2015,95,"Nat. Tidal Ctr., BOM"
168,334A,Pxxx,060,Townsville,Australia,19-15S,146-50E,1984-2016,99,"Nat. Tidal Ctr., BOM"
169,335A,Pxxx,056,Spring Bay,Australia,42-33S,147-56E,1985-2016,97,"Nat. Tidal Ctr., BOM"
170,336A,Pxxx,061,Booby Island,Australia,10-36S,141-55E,1988-2015,93,"Nat. Tidal Ctr., BOM"
171,337A,Pxxx,044,Victoria Dock,Singapore,01-16N,103-49E,1972-1981,95,Port Singapore Auth.
172,338A,Pxxx,xxx,Macau,Portugal,22-10N,113-33E,1978-1985,80,Inst. Hidro. Marinha
173,339A,Pxxx,xxx,Hobart,Australia,42-53S,147-21E,1985-2012,82,"Nat. Tidal Ctr., BOM"
174,340A,Pxxx,xxx,Kaohsiung,Rep. of China,22-37N,120-17E,1980-2016,96,Central Weather Bureau
175,341A,Pxxx,xxx,Keelung,Rep. of China,25-09N,121-45E,1980-2016,86,Central Weather Bureau
176,342A,Pxxx,xxx,Port Kembla,Australia,34-28S,150-55E,1991-2016,99,"Nat. Tidal Ctr., BOM"
177,343A,Pxxx,xxx,Cape Ferguson,Australia,19-17S,147-04E,1991-2016,98,"Nat. Tidal Ctr., BOM"
178,344A,Pxxx,xxx,Burnie,Australia,41-03S,145-55E,1992-2016,99,"Nat. Tidal Ctr., BOM"
179,345A,Pxxx,xxx,Nakano Shima,Japan,29-51N,129-51E,1984-2015,99,Japan Ocean. Data Cen.
180,347A,Pxxx,327,Abashiri,Japan,44-01N,144-17E,1968-2016,98,Japan Meteor. Agency
181,348A,Pxxx,326,Hamada,Japan,34-54N,132-04E,1984-2016,97,Japan Meteor. Agency
182,349A,Pxxx,325,Toyama,Japan,36-46N,137-14E,1967-2016,99,Japan Meteor. Agency
183,350A,Pxxx,089,Kushiro,Japan,42-58N,144-22E,1963-2016,98,Japan Meteor. Agency
184,351A,Pxxx,087,Ofunato,Japan,39-01N,141-45E,1965-2016,98,Japan Meteor. Agency
185,352A,Pxxx,086,Mera,Japan,34-55N,139-49E,1965-2016,95,Japan Meteor. Agency
186,353A,Pxxx,085,Kushimoto,Japan,33-29N,135-46E,1961-2016,98,Japan Meteor. Agency
187,354A,Pxxx,082,Aburatsu,Japan,31-35N,131-25E,1961-2016,100,Japan Meteor. Agency
188,355A,Pxxx,081,Naha,Japan,26-13N,127-40E,1966-2016,100,Japan Meteor. Agency
189,356A,Pxxx,xxx,Maisaka,Japan,34-41N,137-37E,1968-2016,97,Japan Meteor. Agency
190,357A,Pxxx,xxx,Miyakejima,Japan,34-04N,139-29E,1964-2015,99,Japan Ocean. Data Cen.
191,358A,Pxxx,xxx,Hosojima,Japan,32-25N,131-41E,1933-1975,86,Japan Ocean. Data Cen.
192,359A,Pxxx,xxx,Naze,Japan,28-24N,129-30E,1957-2015,94,Japan Ocean. Data Cen.
193,360A,Pxxx,324,Wakkanai,Japan,45-24N,141-41E,1967-2016,99,Japan Meteor. Agency
194,362A,Pxxx,083,Nagasaki,Japan,32-44N,129-52E,1985-2016,100,Japan Meteor. Agency
195,363A,Pxxx,xxx,Nishinoomote,Japan,30-44N,130-60E,1965-2015,99,Japan Ocean. Data Cen.
196,364A,Pxxx,088,Hakodate,Japan,41-47N,140-43E,1964-2016,95,Japan Meteor. Agency
197,365A,Pxxx,xxx,Ishigaki,Japan,24-20N,124-09E,1969-2016,99,Japan Meteor. Agency
198,370A,Pxxx,073,Manila,Philippines,14-35N,120-58E,1984-2014,91,NMRIA
199,371A,Pxxx,072,Legaspi,Philippines,13-09N,123-46E,1984-2017,86,NMRIA
200,372A,Pxxx,071,Davao-A,Philippines,07-07N,125-40E,1984-1997,92,NMRIA
201,372B,Pxxx,071,Davao-B,Philippines,07-07N,125-40S,1998-2017,70,NMRIA
202,373A,Pxxx,070,Jolo,Philippines,06-04N,121-00E,1984-1995,86,NMRIA
203,375A,Pxxx,xxx,Hachinohe,Japan,40-32N,141-32E,1980-2011,99,Japan Meteor. Agency
204,376A,Pxxx,247,Xiamen,China,24-27N,118-04E,1954-1997,100,PRC NODC
205,379A,Pxxx,xxx,Cebu,Philippines,10-18N,123-55E,1998-2014,83,NMRIA
206,380A,Pxxx,xxx,Puerto Princesa,Philippines,09-45N,118-44E,1998-2014,87,NMRIA
207,381A,Pxxx,075,Qui Nhon-A,Vietnam,13-46N,109-15E,1994-2005,58,Mar. Hydromet. Center
208,381B,Pxxx,075,Qui Nhon-B,Vietnam,13-47N,109-15E,2007-2016,90,UH Sea Level Center
209,382A,Pxxx,xxx,Subic Bay,Philippines,14-46N,120-15E,2007-2017,100,UH Sea Level Center
210,383A,Pxxx,xxx,Vung Tau-A,Vietnam,10-20N,107-04E,1986-2002,97,Mar. Hydromet. Center
211,383B,Pxxx,xxx,Vung Tau-B,Vietnam,10-20N,107-04E,2007-2017,99,UH Sea Level Center
212,385A,Pxxx,xxx,Tawau,Malaysia,04-14N,117-53E,1987-2015,94,Dept. Survey/Mapping
213,386A,Pxxx,xxx,Kota Kinabalu,Malaysia,05-59N,116-04E,1987-2015,92,Dept. Survey/Mapping
214,387A,Pxxx,xxx,Bintulu,Malaysia,03-13N,113-04E,1992-2015,87,Dept. Survey/Mapping
215,388A,Pxxx,xxx,Miri,Malaysia,04-24N,113-58E,1992-2014,62,Dept. Survey/Mapping
216,389A,Pxxx,xxx,Sandakan,Malaysia,05-49N,118-04E,1993-2015,96,Dept. Survey/Mapping
217,391A,Pxxx,165,Clipperton-A,France,10-17N,109-13W,1985-1985,47,NOAA/PMEL
218,391B,Pxxx,165,Clipperton-B,France,10-17N,109-13W,1986-1988,100,NOAA/PMEL
219,391C,Pxxx,165,Clipperton-C,France,10-17N,109-13W,2007-2008,99,SHOM
220,391D,Pxxx,165,Clipperton-D,France,10-17N,109-13W,2011-2012,100,SHOM
221,393A,Pxxx,xxx,Puerto Vallarta,Mexico,20-37N,105-15W,1973-1991,40,UNAM
222,394A,Pxxx,xxx,Salina Cruz,Mexico,16-10N,095-12W,1952-1991,81,UNAM
223,395A,Pxxx,163,Manzanillo-A,Mexico,19-03N,104-20W,1953-1982,95,UNAM
224,395B,Pxxx,163,Manzanillo-B,Mexico,19-04N,104-18W,1992-2013,87,National Ocean Service
225,396A,Pxxx,xxx,Puntarenas,Costa Rica,09-58N,084-50W,1970-1980,71,SERMAR
226,397A,Pxxx,xxx,Guaymas,Mexico,27-56N,110-54W,1953-1986,81,UNAM
227,398A,Pxxx,xxx,Marsden Point,New Zealand,35-50S,174-30E,1975-2017,83,LINZ
228,399A,Pxxx,148,Lord Howe-A,Australia,31-31S,159-04E,1958-1967,80,Scripps Inst. Ocean.
229,399B,Pxxx,148,Lord Howe-B,Australia,31-31S,159-04E,1991-2012,98,"Nat. Tidal Ctr., BOM"
230,400A,Pxxx,331,Lombrum,Papua New Guinea,02-02S,147-23E,1994-2016,93,"Nat. Tidal Ctr., BOM"
231,401A,Pxxx,xxx,Apia-A,Western Samoa,13-49S,171-45W,1954-1971,88,Scripps Inst. Ocean.
232,401B,Pxxx,xxx,Apia-B,Western Samoa,13-49S,171-45W,1993-2016,97,"Nat. Tidal Ctr., BOM"
233,402A,Pxxx,xxx,Lautoka,Fiji,17-36S,177-26E,1992-2016,99,"Nat. Tidal Ctr., BOM"
234,403A,Pxxx,xxx,Jackson-A,New Zealand,43-59S,168-37E,1999-2012,100,"Nat. Tidal Ctr., BOM"
235,403B,Pxxx,xxx,Jackson-B,New Zealand,43-59S,168-37E,2013-2016,99,"Nat. Tidal Ctr., BOM"
236,410A,Pxxx,xxx,Lungsurannaga,Indonesia,02-06N,117-45E,1943-1944,95,Japan Ocean. Data Cen.
237,411A,Pxxx,xxx,Balikpapan,Indonesia,01-16S,116-48E,1942-1943,100,Japan Ocean. Data Cen.
238,414A,Pxxx,xxx,Bajor,Indonesia,00-41S,117-25E,1943-1944,97,Japan Ocean. Data Cen.
239,419A,Pxxx,xxx,Lembar,Indonesia,08-44S,116-04E,2008-2017,59,UH Sea Level Center
240,420A,Pxxx,xxx,Saumlaki,Indonesia,07-59S,131-17E,2008-2017,99,UH Sea Level Center
241,540A,Pxxx,155,Prince Rupert,Canada,54-19N,130-19W,1909-2016,79,MEDS
242,542A,Pxxx,156,Tofino,Canada,49-09N,125-55W,1909-2016,75,MEDS
243,543A,Pxxx,xxx,"Victoria,BC",Canada,48-26N,123-22W,1909-2016,99,MEDS
244,547A,Pxxx,xxx,"Barbers Point,HI",USA,21-19N,158-07W,2009-2017,92,UH Sea Level Center
245,548A,Pxxx,xxx,"Kaumalapau,HI",USA,20-47N,156-54W,2007-2015,98,UH Sea Level Center
246,550A,Pxxx,xxx,"Massacre Bay,AK",USA,52-50N,173-12E,1943-1966,88,National Ocean Service
247,551A,Pxxx,158,"San Francisco,CA",USA,37-48N,122-28W,1897-2016,100,National Ocean Service
248,552A,Pxxx,xxx,"Kawaihae,HI",USA,20-02N,155-50W,1989-2016,92,National Ocean Service
249,553A,Pxxx,xxx,"Port Allen,HI",USA,21-54N,159-36W,1989-1997,98,National Ocean Service
250,554A,Pxxx,159,"La Jolla,CA",USA,32-52N,117-15W,1924-2016,94,National Ocean Service
251,555A,Pxxx,xxx,"Monterey,CA",USA,36-36N,121-53W,1973-2016,100,National Ocean Service
252,556A,Pxxx,xxx,"Crescent City,CA",USA,41-45N,124-11W,1933-2016,91,National Ocean Service
253,557A,Pxxx,xxx,"Port Orford,OR",USA,42-44N,124-30W,1978-2016,87,National Ocean Service
254,558A,Pxxx,xxx,"Neah Bay,WA",USA,48-22N,124-37W,1934-2016,97,National Ocean Service
255,559A,Pxxx,154,"Sitka,AK",USA,57-03N,135-21W,1938-2016,99,National Ocean Service
256,560A,Pxxx,150,"Seward-A,AK",USA,60-07N,149-26W,1925-1932,98,National Ocean Service
257,560B,Pxxx,150,"Seward-B,AK",USA,60-07N,149-26W,1944-1949,77,National Ocean Service
258,560C,Pxxx,150,"Seward-C,AK",USA,60-07N,149-26W,1967-2016,89,National Ocean Service
259,561A,Pxxx,xxx,"Seldovia,AK",USA,59-26N,151-43W,1975-2016,88,National Ocean Service
260,562A,Pxxx,xxx,"Valdez,AK",USA,61-08N,146-22W,1973-2016,89,National Ocean Service
261,564A,Pxxx,xxx,"Willapa Bay,WA",USA,46-43N,123-58W,1972-2014,96,National Ocean Service
262,565A,Pxxx,xxx,"Port San Luis,CA",USA,35-11N,120-46W,1948-2016,90,National Ocean Service
263,567A,Pxxx,xxx,"Los Angeles,CA",USA,33-43N,118-16W,1923-2016,99,National Ocean Service
264,569A,Pxxx,xxx,"San Diego,CA",USA,32-43N,117-10W,1906-2016,98,National Ocean Service
265,570A,Pxxx,xxx,"Yakutat,AK",USA,59-33N,139-44W,1961-2016,93,National Ocean Service
266,571A,Pxxx,xxx,"Ketchikan,AK",USA,55-20N,131-38W,1918-2016,76,National Ocean Service
267,572A,Pxxx,xxx,"Astoria,OR",USA,46-13N,123-46W,1925-2016,98,National Ocean Service
268,573A,Pxxx,xxx,"Arena Cove,CA",USA,38-55N,123-43W,1979-2016,79,National Ocean Service
269,574A,Pxxx,100,"Sand Point,AK",USA,55-20N,160-30W,1973-2016,97,National Ocean Service
270,575A,Pxxx,xxx,"Charleston,OR",USA,43-21N,124-19W,1970-2016,92,National Ocean Service
271,576A,Pxxx,xxx,"Humboldt Bay,CA",USA,40-46N,124-13W,1977-2016,98,National Ocean Service
272,577A,Pxxx,xxx,"Santa Barbara,CA",USA,34-25N,119-41W,1979-2016,53,National Ocean Service
273,578A,Pxxx,xxx,"Santa Monica,CA",USA,34-01N,118-30W,1973-2016,95,National Ocean Service
274,579A,Pxxx,151,"Prudhoe Bay,AK",USA,70-24N,148-32W,1989-2016,94,National Ocean Service
275,583A,Pxxx,xxx,"Cordova-A,AK",USA,60-34N,145-45W,1949-1953,94,National Ocean Service
276,583B,Pxxx,xxx,"Cordova-B,AK",USA,60-34N,145-45W,1964-2016,88,National Ocean Service
277,584A,Pxxx,xxx,"Port Angeles,WA",USA,48-08N,123-26W,1979-2016,75,National Ocean Service
278,590A,Pxxx,xxx,Matavai,French Polynesia,17-31S,149-31W,1958-1967,65,Scripps Inst. Ocean.
279,592A,Pxxx,157,"South Beach,OR",USA,44-38N,124-03W,1967-2016,99,National Ocean Service
280,594A,Pxxx,xxx,"Harvest Oil P.,CA",USA,34-28N,120-40W,1992-2016,63,National Ocean Service
281,595A,Pxxx,074,"Nome, AK",USA,64-30N,165-26W,1992-2014,85,National Ocean Service
282,599A,Pxxx,xxx,Diego Ramirez,Chile,56-31S,068-43W,1991-1997,95,SHOA
283,626A,Pxxx,309,Providenya-A,Russia,64-24N,173-12W,1977-1985,100,Inst. Hydromet. Infor.
284,626B,Pxxx,309,Providenya-B,Russia,64-24N,173-12W,1986-1989,100,Inst. Hydromet. Infor.
285,630A,Pxxx,079,Dalian-A,China,38-56N,121-40E,1975-1990,98,PRC NODC
286,631A,Pxxx,079,Laohutan-A,China,38-52N,121-41E,1991-1997,100,PRC NODC
287,632A,Pxxx,094,Kanmen-A,China,28-05N,121-17E,1975-1997,100,PRC NODC
288,633A,Pxxx,283,Lusi-A,China,32-08N,121-37E,1975-1996,98,PRC NODC
289,635A,Pxxx,078,Zhapo-A,China,21-35N,111-50E,1975-1997,100,PRC NODC
290,636A,Pxxx,xxx,Beihai,China,21-29N,109-05E,1975-1997,100,PRC NODC
291,637A,Pxxx,xxx,Dongfang,China,19-06N,108-37E,1975-1997,100,PRC NODC
292,638A,Pxxx,xxx,Haikou,China,20-01N,110-17E,1976-1997,100,PRC NODC
293,639A,Pxxx,xxx,Lianyungang,China,34-45N,119-25E,1975-1997,100,PRC NODC
294,641A,Pxxx,xxx,Shanwei,China,22-45N,115-21E,1975-1997,98,PRC NODC
295,642A,Pxxx,xxx,Shijiusuo,China,35-23N,119-33E,1975-1997,100,PRC NODC
296,650A,Pxxx,xxx,Hon Dau-A,Vietnam,20-40N,106-49E,1960-1960,100,Mar. Hydromet. Center
297,650B,Pxxx,xxx,Hon Dau-B,Vietnam,20-40N,106-49E,1995-1995,75,TEDIPORT
298,651A,Pxxx,xxx,Vung Ang,Vietnam,18-05N,106-17E,1996-1997,100,TEDIPORT
299,654A,Pxxx,xxx,Currimao,Philippines,17-59N,120-29E,2009-2017,99,UH Sea Level Center
300,655A,Pxxx,xxx,Lubang,Philippines,13-49N,120-12E,2010-2017,100,UH Sea Level Center
301,663A,Pxxx,134,Scott Base,New Zealand,77-51S,166-46E,2001-2017,61,NIWA
302,665A,Pxxx,xxx,Timaru,New Zealand,44-23S,171-15E,1987-2017,64,LINZ
303,667A,Pxxx,xxx,Lyttelton,New Zealand,43-36S,172-43E,1995-2017,97,LINZ
304,668A,Pxxx,xxx,Napier,New Zealand,39-29S,176-55E,1989-2017,84,LINZ
305,669A,Pxxx,xxx,Port Chalmers,New Zealand,45-49S,170-39E,1985-2017,67,LINZ
306,670A,Pxxx,xxx,Champerico,Guatemala,14-18N,091-55W,1974-1975,98,Oregon State Univerity
307,671A,Pxxx,xxx,La Paz,Mexico,24-10N,110-21W,1952-1983,71,UNAM
308,672A,Pxxx,164,Puerto Angel,Mexico,15-39N,096-30W,1962-1984,74,UNAM
309,673A,Pxxx,xxx,Mazatlan,Mexico,23-12N,106-25W,1953-1975,97,UNAM
310,674A,Pxxx,xxx,San Carlos,Mexico,24-47N,112-07W,1968-1983,51,UNAM
311,675A,Pxxx,xxx,San Jose,Guatemala,13-55N,090-50W,1955-1975,93,Oregon State Univerity
312,676A,Pxxx,xxx,Topolobampo,Mexico,25-36N,109-03W,1956-1974,94,UNAM
313,677A,Pxxx,xxx,Yavaros,Mexico,26-42N,109-31W,1970-1973,85,UNAM
314,678A,Pxxx,xxx,Paita-A,Peru,05-05S,081-10W,1981-1984,100,National Ocean Service
315,678B,Pxxx,xxx,Paita-B,Peru,05-05S,081-10W,1988-2016,86,DHNM
316,679A,Pxxx,xxx,Corinto-A,Nicaragua,12-17N,087-07W,1967-1967,99,National Ocean Service
317,679B,Pxxx,xxx,Corinto-B,Nicaragua,12-29N,087-10W,2001-2001,50,National Ocean Service
318,680A,Pxxx,130,Macquerie Is.-A,Australia,54-29S,158-58E,1912-1913,97,"Nat. Tidal Ctr., BOM"
319,680B,Pxxx,130,Macquerie Is.-B,Australia,54-29S,158-58E,1968-1972,45,"Nat. Tidal Ctr., BOM"
320,680C,Pxxx,130,Macquerie Is.-C,Australia,54-29S,158-58E,1993-2007,79,"Nat. Tidal Ctr., BOM"
321,681A,Pxxx,xxx,San Martin-A,Argentina,68-08S,067-06W,1995-1995,8,Alfred Wegener Inst.
322,681B,Pxxx,xxx,San Martin-B,Argentina,68-08S,067-06W,1998-1998,5,Alfred Wegener Inst.
323,681C,Pxxx,xxx,San Martin-C,Argentina,68-08S,067-06W,1998-1999,100,Alfred Wegener Inst.
324,682A,Pxxx,xxx,Dallmann-A,Argentina,62-14S,058-41W,1996-1997,99,Alfred Wegener Inst.
325,682B,Pxxx,xxx,Dallmann-B,Argentina,62-14S,058-41W,1997-1997,69,Alfred Wegener Inst.
326,682C,Pxxx,xxx,Dallmann-C,Argentina,62-14S,058-41W,1998-1999,100,Alfred Wegener Inst.
327,683A,Pxxx,xxx,Pisco-A,Peru,13-25S,076-08W,1985-1990,67,DHNM
328,683B,Pxxx,xxx,Pisco-B,Peru,13-25S,076-08W,1991-2014,76,DHNM
329,684A,Pxxx,178,Puerto Montt,Chile,41-29S,072-58W,1980-2016,95,SHOA
330,687A,Pxxx,xxx,"Zihuatenajo,Gro.",Mexico,17-38N,101-34W,2011-2013,64,UNAM
331,698A,Pxxx,xxx,Tinian,N. Mariana Is.,14-58N,145-37E,1991-1997,93,USGS
332,699A,Pxxx,044,Tanjong Pagar,Singapore,01-16N,103-51E,1988-2016,96,Port Singapore Auth.
333,100A,Ixxx,xxx,Port Stanvac,Australia,35-07S,138-28E,1992-2010,99,"Nat. Tidal Ctr., BOM"
334,101A,Ixxx,008,Mombasa,Kenya,04-04S,039-39E,1986-2017,76,UH Sea Level Center
335,102A,Ixxx,xxx,Dar Es Salaam,Tanzania,06-49S,039-17E,1986-1990,87,UH Sea Level Center
336,103A,Ixxx,018,Port Louis-A,Mauritius,20-09S,057-29E,1942-1947,90,Inst. Ocean. Sciences
337,103B,Ixxx,018,Port Louis-B,Mauritius,20-09S,057-29E,1964-1965,86,Inst. Ocean. Sciences
338,103C,Ixxx,018,Port Louis-C,Mauritius,20-09S,057-30E,1986-2017,99,UH Sea Level Center
339,104B,Ixxx,026,Diego Garcia-B,United Kingdom,07-14S,072-26E,1969-1969,41,Scripps Inst. Ocean.
340,104C,Ixxx,026,Diego Garcia-C,United Kingdom,07-17S,072-24E,1988-2000,80,UH Sea Level Center
341,104D,Ixxx,026,Diego Garcia-D,United Kingdom,07-17S,072-24E,2003-2017,88,UH Sea Level Center
342,105A,Ixxx,019,Rodrigues,Mauritius,19-40S,063-25E,1986-2017,97,UH Sea Level Center
343,106A,Ixxx,xxx,Praslin,Seychelles,04-21S,055-46E,1987-1989,89,UH Sea Level Center
344,107A,Ixxx,045,Padang-A,Indonesia,00-57S,100-22E,1986-1998,53,BAKOSURTANAL
345,107B,Ixxx,045,Padang-B,Indonesia,00-60S,100-23E,2005-2017,97,BAKOSURTANAL
346,108A,Ixxx,028,Male-A,Rep. of Maldives,04-11N,073-31E,1988-1989,100,Lanka Hydraulic Inst.
347,108B,Ixxx,028,"Male-B,Hulule",Rep. of Maldives,04-11N,073-32E,1989-2017,96,UH Sea Level Center
348,109A,Ixxx,027,Gan,Rep. of Maldives,00-41S,073-09E,1987-2017,93,UH Sea Level Center
349,110A,Ixxx,xxx,Muscat-A,Oman,23-38N,058-34E,1987-1993,77,UH Sea Level Center
350,110B,Ixxx,xxx,Muscat-B,Oman,23-38N,058-34E,2009-2017,95,UH Sea Level Center
351,111A,Ixxx,xxx,Port Victoria-A,Seychelles,04-37S,055-28E,1977-1982,84,Inst. Ocean. Sciences
352,111B,Ixxx,xxx,Port Victoria-B,Seychelles,04-37S,055-28E,1986-1992,96,UH Sea Level Center
353,113A,Ixxx,xxx,Masirah,Oman,20-41N,058-52E,1996-2017,82,UH Sea Level Center
354,114A,Ixxx,004,Salalah,Oman,16-56N,054-00E,1989-2017,82,UH Sea Level Center
355,115A,Ixxx,033,Colombo-A,Sri Lanka,06-56N,079-51E,1953-1965,94,Nat. Aquatic Resources
356,115B,Ixxx,033,Colombo-B,Sri Lanka,06-57N,079-51E,1989-1992,96,UH Sea Level Center
357,115C,Ixxx,033,Colombo-C,Sri Lanka,06-56N,079-52E,2006-2016,98,UH Sea Level Center
358,115D,Ixxx,033,Colombo-D,Sri Lanka,06-57N,079-51E,2017-2017,67,UH Sea Level Center
359,117A,Ixxx,xxx,Hanimaadhoo-A,Rep. of Maldives,06-46N,073-10E,1991-2002,98,UH Sea Level Center
360,117B,Ixxx,xxx,Hanimaadhoo-B,Rep. of Maldives,06-46N,073-10E,2002-2017,91,UH Sea Level Center
361,119A,Ixxx,002,Djibouti,Rep. of Djibouti,11-37N,043-08E,2007-2016,90,NOC-UK
362,121A,Ixxx,339,Pt. La Rue,Seychelles,04-40S,055-32E,1993-2017,98,UH Sea Level Center
363,122A,Ixxx,xxx,Sibolga-A,Indonesia,01-45N,098-46E,1989-2004,89,BAKOSURTANAL
364,122B,Ixxx,xxx,Sibolga-B,Indonesia,01-45N,098-46E,2005-2017,95,BAKOSURTANAL
365,123A,Ixxx,347,Sabang,Indonesia,05-53N,95-19E,2005-2017,88,BAKOSURTANAL
366,124A,Ixxx,036,Chittagong,Bangladesh,22-15N,091-50E,2007-2017,96,UH Sea Level Center
367,125A,Ixxx,xxx,Prigi,Indonesia,08-17S,111-44E,2007-2017,97,UH Sea Level Center
368,127A,Ixxx,095,Syowa,Japan,69-00S,039-36E,1987-2015,96,Japan Ocean. Data Cen.
369,128A,Ixxx,308,Thevenard,Australia,32-09S,133-38E,1992-2016,99,"Nat. Tidal Ctr., BOM"
370,129A,Ixxx,055,"Portland,Vict.",Australia,38-21S,141-37E,1991-2016,99,"Nat. Tidal Ctr., BOM"
371,130A,Ixxx,278,Casey,Australia,66-17S,110-32E,1996-2008,82,"Nat. Tidal Ctr., BOM"
372,132A,Ixxx,xxx,Hillarys,Australia,31-50S,115-44E,1992-2016,100,"Nat. Tidal Ctr., BOM"
373,133A,Ixxx,068,Ambon-A,Indonesia,03-41S,128-11E,1992-2004,46,BAKOSURTANAL
374,133B,Ixxx,068,Ambon-B,Indonesia,03-38S,128-12E,2008-2017,77,BAKOSURTANAL
375,134A,Ixxx,xxx,Hiron Point,Bangladesh,21-47N,089-28E,1977-2003,99,BIWTA
376,135A,Ixxx,xxx,Khal #10,Bangladesh,22-16N,091-49E,1983-1992,62,BIWTA
377,136A,Ixxx,xxx,Cox's Bazaar,Bangladesh,21-27N,091-50E,1983-2006,89,BIWTA
378,137A,Ixxx,xxx,Teknaf,Bangladesh,20-53N,092-18E,1983-1988,59,BIWTA
379,138A,Ixxx,xxx,Charchanga,Bangladesh,22-13N,091-03E,1980-2000,97,BIWTA
380,139A,Ixxx,xxx,Khepupara,Bangladesh,21-50N,089-50E,1987-2000,96,BIWTA
381,140A,Ixxx,xxx,Kelang,Malaysia,03-03N,101-22E,1983-2015,95,Dept. Survey/Mapping
382,141A,Ixxx,xxx,Keling,Malaysia,02-13N,102-09E,1984-2015,99,Dept. Survey/Mapping
383,142A,Ixxx,xxx,Langkawi,Malaysia,06-52N,099-46E,1985-2017,93,Dept. Survey/Mapping
384,143A,Ixxx,043,Lumut,Malaysia,04-14N,100-37E,1984-2015,97,Dept. Survey/Mapping
385,144A,Ixxx,xxx,Penang,Malaysia,05-25N,100-21E,1984-2015,97,Dept. Survey/Mapping
386,145A,Ixxx,xxx,Groote Eylandt,Australia,13-52S,136-25E,1993-2016,99,"Nat. Tidal Ctr., BOM"
387,147A,Ixxx,030,Karachi-A,Pakistan,24-48N,066-58E,1985-1994,83,Nat. Inst. of Ocean.
388,147B,Ixxx,030,Karachi-B,Pakistan,24-49N,066-59E,2007-2016,99,NOC-UK
389,148A,Ixxx,042,Ko Taphao Noi,Thailand,07-50N,098-26E,1985-2017,98,Naval Hydro. Dept.
390,149A,Ixxx,xxx,Lamu-A,Kenya,02-16S,040-54E,1989-1989,68,Kenya Marine Fisheries
391,149B,Ixxx,xxx,Lamu-B,Kenya,02-16S,040-54E,1995-2017,97,UH Sea Level Center
392,150A,Ixxx,015,Nosy Be,Madagascar,13-24S,048-18E,1958-2014,34,CNRO
393,151A,Ixxx,297,Zanzibar,Tanzania,06-09S,039-11E,1984-2017,96,UH Sea Level Center
394,155A,Ixxx,096,Dzaoudzi,Mayotte,12-47S,045-16E,1963-2014,25,SHOM
395,158A,Ixxx,xxx,Meneng,Indonesia,08-07S,114-23E,1987-1989,94,Center for Ocean. Res.
396,159A,Ixxx,xxx,Pari,Indonesia,05-51S,106-37E,1987-1990,84,Center for Ocean. Res.
397,160A,Ixxx,292,Surabaya,Indonesia,07-13S,112-44E,1984-2004,81,BAKOSURTANAL
398,161A,Ixxx,xxx,Jakarta,Indonesia,06-07S,106-51E,1984-2004,62,BAKOSURTANAL
399,162A,Ixxx,291,Cilacap-A,Indonesia,07-45S,109-01E,1984-2004,40,BAKOSURTANAL
400,162B,Ixxx,291,Cilacap-B,Indonesia,07-45S,109-01E,2007-2017,99,UH Sea Level Center
401,163A,Ixxx,049,Benoa-A,Indonesia,08-45S,115-13E,1988-2004,69,BAKOSURTANAL
402,163B,Ixxx,049,Benoa-B,Indonesia,08-45S,115-13E,2006-2017,86,UH Sea Level Center
403,164A,Ixxx,017,Reunion,France,20-56S,055-17E,1967-2016,60,SHOM
404,165A,Ixxx,xxx,Wyndham,Australia,15-27S,128-06E,1984-2012,97,"Nat. Tidal Ctr., BOM"
405,166A,Ixxx,040,Broome,Australia,18-00S,122-13E,1986-2016,89,"Nat. Tidal Ctr., BOM"
406,167A,Ixxx,052,Carnarvon,Australia,24-54S,113-39E,1984-2012,86,"Nat. Tidal Ctr., BOM"
407,168A,Ixxx,062,Darwin,Australia,12-28S,130-51E,1984-2016,98,"Nat. Tidal Ctr., BOM"
408,169A,Ixxx,051,Port Hedland,Australia,20-19S,118-35E,1984-2012,98,"Nat. Tidal Ctr., BOM"
409,170A,Ixxx,047,Christmas,Australia,10-25S,105-40E,1986-2009,24,"Nat. Tidal Ctr., BOM"
410,171A,Ixxx,046,Cocos,Australia,12-07S,096-54E,1985-2016,96,"Nat. Tidal Ctr., BOM"
411,172A,Ixxx,003,Aden,Yemen,12-47N,044-59E,2007-2014,94,NOC-UK
412,173A,Ixxx,277,Davis,Australia,68-27S,077-58E,1993-2010,94,"Nat. Tidal Ctr., BOM"
413,175A,Ixxx,053,Fremantle,Australia,32-03S,115-44E,1984-2015,100,"Nat. Tidal Ctr., BOM"
414,176A,Ixxx,054,Esperance,Australia,33-52S,121-54E,1985-2016,98,"Nat. Tidal Ctr., BOM"
415,177A,Ixxx,022,Mawson,Australia,67-36S,062-52E,1992-2009,94,"Nat. Tidal Ctr., BOM"
416,178A,Ixxx,021,Crozet-A,France,46-26S,051-52E,1995-1999,52,LEGOS/OMP
417,178B,Ixxx,021,Crozet-B,France,46-26S,051-52E,2000-2001,76,LEGOS/OMP
418,179A,Ixxx,024,Saint Paul,France,38-43S,077-32E,1994-2006,92,LEGOS/OMP
419,180A,Ixxx,023,Kerguelen,France,49-21S,070-13E,1993-2012,99,LEGOS/OMP
420,182A,Ixxx,xxx,Mina Sulman,Bahrain,26-14N,050-36E,1979-2007,68,Survey Directorate
421,189A,Ixxx,131,Dumont d'Urville,France,66-40S,140-01E,2008-2010,93,LEGOS/OMP
422,190A,Ixxx,xxx,Maputo-A,Mozambique,26-10S,032-42E,1974-1974,100,Inst. Hidro. Marinha
423,190B,Ixxx,xxx,Maputo-B,Mozambique,25-59S,032-34E,1981-1986,49,INAHINA
424,191A,Ixxx,xxx,Antonio Enes,Mozambique,16-14S,039-54E,1967-1967,31,Inst. Hidro. Marinha
425,192A,Ixxx,011,Pemba-A,Mozambique,12-58S,040-30E,1971-1973,25,Inst. Hidro. Marinha
426,192B,Ixxx,011,Pemba-B,Mozambique,12-58S,040-29E,1982-1984,64,INAHINA
427,192C,Ixxx,011,Pemba-C,Mozambique,12-58S,040-29E,2007-2013,48,NOC-UK
428,193A,Ixxx,xxx,Nacala-A,Mozambique,14-28S,040-41E,1975-1975,18,Inst. Hidro. Marinha
429,193B,Ixxx,xxx,Nacala-B,Mozambique,14-28S,040-41E,1982-1983,100,Inst. Hidro. Marinha
430,900A,Ixxx,010,Inhambane,Mozambique,23-52S,035-23E,2011-2011,24,NOC-UK
431,906A,Ixxx,141,Moulmein,Myanmar,16-28N,097-37E,2006-2017,82,UH Sea Level Center
432,907A,Ixxx,037,Akyab (Sittwe),Myanmar,20-08N,092-54E,2006-2017,62,UH Sea Level Center
433,915A,Ixxx,337,Chabahar,Iran,25-18N,060-36E,2007-2016,96,NOC-UK
434,201A,Axxx,199,St. Peter&Paul R.,Brazil,00-55N,029-21W,1982-1985,99,ORSTOM
435,202A,Axxx,xxx,Natal-A,Brazil,05-45S,035-12W,1982-1983,100,ORSTOM
436,202B,Axxx,xxx,Natal-B,Brazil,05-45S,035-12W,1983-1984,99,ORSTOM
437,202C,Axxx,xxx,Natal-C,Brazil,05-45S,035-12W,1984-1985,100,ORSTOM
438,203A,Axxx,198,Fer. de Nor.-A,Brazil,03-50S,032-24W,1982-1983,100,ORSTOM
439,203B,Axxx,198,Fer. de Nor.-B,Brazil,03-50S,032-24W,1984-1985,100,ORSTOM
440,203C,Axxx,198,Fer. de Nor.-C,Brazil,03-50S,032-24W,1985-1986,100,LPAO/INPE
441,204A,Axxx,265,Trindade,Brazil,20-30S,029-19W,1983-1983,16,ORSTOM
442,205A,Axxx,xxx,Arrecife-A,Spain,28-57N,013-34W,1959-1973,98,Inst. Espanol Ocean.
443,205B,Axxx,xxx,Arrecife-B,Spain,28-57N,013-34W,1973-1985,69,Inst. Espanol Ocean.
444,205D,Axxx,xxx,Arrecife-D,Spain,28-57N,013-34W,1987-1991,90,Inst. Espanol Ocean.
445,206A,Axxx,xxx,S.Cruz Palma-A,Spain,28-41N,017-45W,1949-1959,100,Inst. Espanol Ocean.
446,206B,Axxx,xxx,S.Cruz Palma-B,Spain,28-41N,017-45W,1959-1981,93,Inst. Espanol Ocean.
447,206D,Axxx,xxx,S.Cruz Palma-D,Spain,28-41N,017-45W,1989-1990,93,Inst. Espanol Ocean.
448,207A,Axxx,249,Ceuta,Spain,35-54N,005-19W,1944-2013,96,Inst. Espanol Ocean.
449,208A,Axxx,xxx,Vigo,Spain,42-14N,008-44W,1943-1990,100,Inst. Espanol Ocean.
450,209A,Axxx,246,Cascais,Portugal,38-42N,009-25W,1959-2005,88,Inst. Geogr. Port.
451,210A,Axxx,244,"Flores,Santa Cruz",Portugal,39-27N,031-07W,1976-2009,58,Inst. Hidro. Marinha
452,211A,Axxx,245,Ponta Delgada,Portugal,37-44N,025-40W,1978-2017,76,Inst. Hidro. Marinha
453,212A,Axxx,xxx,"Horta,Azores",Portugal,38-32N,028-37W,1984-1986,87,Inst. Hidro. Marinha
454,213A,Axxx,244,"Flores,Lajes",Portugal,39-23N,031-10W,2006-2013,100,Inst. Hidro. Marinha
455,214A,Axxx,xxx,"Lameshur Bay,VI",USA,18-19N,064-43W,2006-2016,100,National Ocean Service
456,215A,Axxx,xxx,Angra Heroismo-A,Portugal,38-39N,027-14W,1957-1962,100,Inst. Hidro. Marinha
457,215B,Axxx,xxx,Angra Heroismo-B,Portugal,38-39N,027-14W,1976-1983,94,Inst. Hidro. Marinha
458,216A,Axxx,xxx,Porto Grande,Portugal,16-52N,024-59W,1990-1993,38,Inst. Hidro. Marinha
459,217A,Axxx,251,Las Palmas-A,Spain,28-06N,015-24W,1949-1956,95,Inst. Espanol Ocean.
460,217B,Axxx,251,Las Palmas-B,Spain,28-06N,015-24W,1971-1982,88,Inst. Espanol Ocean.
461,217C,Axxx,251,Las Palmas-C,Spain,28-06N,015-24W,1983-1991,73,Inst. Espanol Ocean.
462,217D,Axxx,251,Las Palmas-D,Spain,28-08N,015-25W,1991-2013,96,Inst. Espanol Ocean.
463,218B,Axxx,250,Funchal-B,Portugal,32-39N,016-55W,1976-2013,76,Inst. Hidro. Marinha
464,219A,Axxx,xxx,"Culebra,PR",USA,18-18N,065-18W,2005-2013,95,National Ocean Service
465,222A,Axxx,xxx,Praia-A,Cape Verde,14-55N,023-30W,1984-1985,100,ORSTOM
466,222C,Axxx,xxx,Praia-C,Cape Verde,14-55N,023-31W,1995-1996,64,National Ocean Service
467,223A,Axxx,253,Dakar-A,Senegal,14-40N,017-26W,1982-1983,100,ORSTOM
468,223B,Axxx,253,Dakar-B,Senegal,14-40N,017-26W,1983-1985,100,ORSTOM
469,223C,Axxx,253,Dakar-C,Senegal,14-40N,017-26W,1986-1986,44,ORSTOM
470,223D,Axxx,253,Dakar-D,Senegal,14-40N,017-26W,1986-1989,94,ORSTOM
471,223E,Axxx,253,Dakar-E,Senegal,14-41N,017-25W,1992-2017,77,UH Sea Level Center
472,225A,Axxx,260,Sao Tome,Sao Tome/Princip,00-01N,006-31E,1985-1988,58,ORSTOM
473,227A,Axxx,xxx,Cayenne,France,04-51N,052-16W,2006-2007,67,SHOM
474,228A,Axxx,xxx,Tenerife,Spain,28-29N,016-14W,1992-2017,96,Puertos del Estado
475,229A,Axxx,xxx,Belem,Brazil,01-27S,048-30W,1955-1968,96,National Ocean Service
476,230A,Axxx,257,Abidjan-Vridi,Ivory Coast,05-15N,004-00W,1982-1988,100,ORSTOM
477,231A,Axxx,335,Takoradi-A,Ghana,04-53N,001-45W,1983-1986,100,ORSTOM
478,231B,Axxx,335,Takoradi-B,Ghana,04-53N,001-45W,2004-2005,100,"NIO,India"
479,231C,Axxx,335,Takoradi-C,Ghana,04-53N,001-45W,2007-2012,61,Survey of Ghana
480,233A,Axxx,259,Lagos-A,Nigeria,06-25N,003-27E,1961-1969,63,NOC
481,233C,Axxx,259,Lagos-C,Nigeria,06-25N,003-25E,1992-1996,74,NIOMR
482,234A,Axxx,261,Pointe Noire-A,Congo,04-48S,011-51E,1980-1988,77,ORSTOM
483,234B,Axxx,261,Pointe Noire-B,Congo,04-47S,011-50E,2008-2015,84,NOC-UK
484,235A,Axxx,329,"Palmeira,C.Verde",Portugal,16-45N,022-59W,2000-2017,93,UH Sea Level Center
485,236A,Axxx,xxx,Luanda,Angola,08-47S,013-14E,1972-1975,100,Inst. Hidro. Marinha
486,237A,Axxx,262,Lobito,Angola,12-20S,013-34E,1971-1975,88,Inst. Hidro. Marinha
487,238A,Axxx,xxx,Mocamedes,Angola,15-12S,012-09E,1971-1975,98,Inst. Hidro. Marinha
488,239A,Axxx,215,Siboney,Cuba,23-06N,082-28W,1990-1990,99,Inst. Cubano De Hidro.
489,240A,Axxx,xxx,Fernandina Beach,USA,30-40N,081-28W,1897-2016,47,National Ocean Service
490,241A,Axxx,332,"Miami,Haulover P.",USA,25-54N,080-07W,1985-1992,96,National Ocean Service
491,242A,Axxx,216,Key West,USA,24-33N,081-49W,1913-2016,98,National Ocean Service
492,243A,Axxx,xxx,"Penuelas, PR",USA,17-58N,066-46W,2001-2005,100,National Ocean Service
493,244A,Axxx,276,Gibara,Cuba,21-07N,076-07W,1985-1992,100,Inst. Cubano De Hidro.
494,245A,Axxx,206,San Juan,USA,18-28N,066-07W,1977-2016,96,National Ocean Service
495,246A,Axxx,xxx,Magueyes Island,USA,17-58N,067-03W,1954-2016,89,National Ocean Service
496,247A,Axxx,328,La Guaira,Venezuela,10-37N,066-56W,1985-1994,97,Inst. Ocean. Venezuela
497,248A,Axxx,203,Port-of-Spain,Trinidad/Tobago,10-39N,061-31W,1984-1992,81,Trin/Tob. Hydro. Unit
498,249A,Axxx,xxx,Bridgetown-A,Barbados,13-06N,059-37W,1968-1970,98,National Ocean Service
499,249B,Axxx,xxx,Bridgetown-B,Barbados,13-06N,059-37W,1990-1991,92,Gov. of Barbados
500,249C,Axxx,xxx,Bridgetown-C,Barbados,13-06N,059-37W,1993-1996,45,Gov. of Barbados
501,249D,Axxx,xxx,Bridgetown-D,Barbados,13-07N,059-38W,2008-2010,80,Gov. of Barbados
502,250A,Axxx,212,"Veracruz-A,Ver.",Mexico,19-12N,096-07W,1985-2012,58,UNAM
503,250B,Axxx,212,"Veracruz-B,Ver.",Mexico,19-12N,096-08W,1999-2004,63,Secretaria de Marina
504,251A,Axxx,xxx,Guantanamo Bay-A,Cuba,19-54N,075-09W,1937-1948,81,National Ocean Service
505,251B,Axxx,xxx,Guantanamo Bay-B,Cuba,19-54N,075-09W,1995-1997,89,National Ocean Service
506,252A,Axxx,xxx,"Portland,ME",USA,43-39N,070-15W,1910-2016,97,National Ocean Service
507,253A,Axxx,290,"Newport,RI",USA,41-30N,071-20W,1930-2016,96,National Ocean Service
508,254A,Axxx,xxx,Limetree Bay,USA,17-42N,064-45W,1982-2016,93,National Ocean Service
509,255A,Axxx,xxx,Charlotte Amalie,USA,18-20N,064-55W,1978-2016,91,National Ocean Service
510,256A,Axxx,012,Exuma Cays,Bahamas,23-46N,076-06W,1992-1993,99,HBOI
511,257A,Axxx,211,Settlement Pnt.-A,Bahamas,26-43N,078-60W,1985-2002,91,National Ocean Service
512,257B,Axxx,211,Settlement Pnt.-B,Bahamas,26-41N,078-59W,2002-2017,91,UH Sea Level Center
513,258A,Axxx,xxx,"Christiansted,VI",USA,17-45N,064-42W,2006-2016,99,National Ocean Service
514,259A,Axxx,221,Bermuda-A,United Kingdom,32-22N,064-42W,1932-1949,78,National Ocean Service
515,259B,Axxx,221,Bermuda-B,United Kingdom,32-22N,064-42W,1985-2016,82,National Ocean Service
516,260A,Axxx,219,"Duck Pier,NC",USA,36-11N,075-45W,1978-2016,99,National Ocean Service
517,261A,Axxx,xxx,"Charleston,SC-A",USA,32-47N,079-56W,1901-1903,99,National Ocean Service
518,261B,Axxx,xxx,"Charleston,SC-B",USA,32-47N,079-56W,1921-2016,99,National Ocean Service
519,262A,Axxx,xxx,"St. Augustine,FL",USA,29-51N,081-16W,1978-2002,42,National Ocean Service
520,263A,Axxx,xxx,"Aguadilla,PR",USA,18-27N,067-10W,2006-2012,90,National Ocean Service
521,264A,Axxx,220,"Atlantic City,NJ",USA,39-21N,074-25W,1911-2016,95,National Ocean Service
522,265A,Axxx,207,Cartagena-A,Colombia,10-23N,075-32W,1951-1993,90,IDEAM
523,265B,Axxx,207,Cartagena-B,Colombia,10-23N,075-32W,1993-2014,69,IDEAM
524,266A,Axxx,208,Cristobal,Panama,09-21N,079-55W,1907-2014,93,Autoridad Canal Panama
525,267A,Axxx,xxx,"Mona Is.,PR",USA,18-05N,067-56W,2006-2016,94,National Ocean Service
526,268A,Axxx,xxx,Limon-A,Costa Rica,10-00N,083-02W,1970-1981,66,SERMAR
527,268B,Axxx,xxx,Limon-B,Costa Rica,09-59N,083-01W,2009-2017,100,UH Sea Level Center
528,269A,Axxx,xxx,Cochino Pequeno,Honduras,15-57N,086-30W,1995-1996,100,National Ocean Service
529,270A,Axxx,xxx,Le Robert,France,14-41N,060-56W,1976-1984,61,SHOM
530,271A,Axxx,338,Fort de France,France,14-36N,061-04W,1976-2016,35,SHOM
531,272A,Axxx,xxx,Pointe-a-Pitre,France,16-14N,061-32W,1991-2012,63,Meteo-France
532,274A,Axxx,xxx,Churchill,Canada,58-46N,094-11W,1961-2016,93,MEDS
533,275A,Axxx,222,Halifax,Canada,44-40N,063-35W,1895-2014,80,MEDS
534,276A,Axxx,223,St. John's-A,Canada,47-34N,052-42W,1935-1989,59,MEDS
535,276B,Axxx,223,St. John's-B,Canada,47-34N,052-42W,1989-2015,96,MEDS
536,277A,Axxx,xxx,"Madero,Tampico",Mexico,22-16N,097-48W,2004-2007,89,National Ocean Service
537,279A,Axxx,xxx,Montauk,USA,41-03N,071-58W,1947-2016,92,National Ocean Service
538,280A,Axxx,195,Rio de Janeiro,Brazil,22-54S,043-10W,1963-2013,95,Dir. Hidro. e Navegaca
539,281A,Axxx,194,Cananeia-A,Brazil,25-01S,047-56W,1954-2006,99,Inst. Ocean. USP
540,281B,Axxx,194,Cananeia-B,Brazil,25-01S,047-56W,2014-2016,100,Inst. Ocean. USP
541,282A,Axxx,xxx,Ubatuba,Brazil,23-30S,045-07W,2013-2017,95,Inst. Ocean. USP
542,283A,Axxx,336,Fortaleza-A,Brazil,03-43S,038-29W,1955-1968,95,National Ocean Service
543,283B,Axxx,336,Fortaleza-B,Brazil,03-43S,038-28W,1995-1998,100,LPAO/INPE
544,283C,Axxx,336,Fortaleza-C,Brazil,03-43S,038-29W,2008-2017,100,UH Sea Level Center
545,284A,Axxx,xxx,Termisa,Brazil,04-49S,037-03W,1993-1995,97,LPAO/INPE
546,285A,Axxx,xxx,Buenos Aires,Argentina,34-40S,058-30W,1905-1961,100,Ser. Hidro. Naval
547,286A,Axxx,190,Puerto Deseado-A,Argentina,47-45S,065-55W,1988-1989,87,Ser. Hidro. Naval
548,286B,Axxx,190,Puerto Deseado-B,Argentina,47-45S,065-55W,2010-2017,82,UH Sea Level Center
549,287A,Axxx,xxx,Puerto Williams,Chile,54-56S,067-37W,1985-1998,88,SHOA
550,288A,Axxx,229,Reykjavik,Iceland,64-09N,021-56W,1984-1999,94,Iceland Hydro. Serv.
551,289A,Axxx,248,Gibraltar-A,United Kingdom,36-08N,005-21W,1961-2014,62,UKHO/NOC
552,289B,Axxx,248,Gibraltar-B,United Kingdom,36-08N,005-21W,1993-2000,62,UKHO
553,290A,Axxx,305,Port Stanley-A,United Kingdom,52-42S,057-52W,1964-1974,47,NOC
554,290B,Axxx,305,Port Stanley-B,United Kingdom,51-45S,057-56W,1992-2014,90,NOC
555,291A,Axxx,263,Ascension,United Kingdom,07-55S,014-25W,1993-2012,65,NOC
556,292A,Axxx,264,St. Helena-A,United Kingdom,15-55S,005-43W,1993-2006,75,NOC
557,292B,Axxx,264,St. Helena-B,United Kingdom,15-55S,005-43W,2011-2013,100,NOC
558,293A,Axxx,236,Lerwick,United Kingdom,60-09N,001-08W,1959-2016,94,NOC
559,294A,Axxx,241,Newlyn,United Kingdom,50-06N,005-33W,1915-2016,98,NOC
560,295A,Axxx,238,Stornoway,United Kingdom,58-13N,006-23W,1976-2016,80,NOC
561,296A,Axxx,xxx,Sisimiut,Denmark,66-56N,053-40W,1991-1998,85,Danish Navig./Hydro.
562,297A,Axxx,228,Ammassalik,Denmark,65-36N,037-00W,1990-1998,78,Danish Navig./Hydro.
563,298A,Axxx,xxx,Ilulissat,Denmark,69-13N,051-06W,1992-1997,82,Danish Navig./Hydro.
564,299A,Axxx,344,Qaqortoq,Denmark,60-43N,046-02W,1991-1998,83,Danish Navig./Hydro.
565,600A,Axxx,181,Ushuaia,Argentina,54-48S,068-18W,1996-2017,67,UH Sea Level Center
566,601A,Axxx,185,Esperanza,Argentina,63-24S,056-60W,1996-1998,86,National Ocean Service
567,700A,Axxx,188,Faraday,United Kingdom,65-15S,064-16W,1959-2013,75,NOC
568,705A,Axxx,xxx,L. Cornwallis I.,Canada,75-23N,096-57W,1986-1994,100,MEDS
569,707A,Axxx,xxx,Canavieiras,Brazil,15-40S,038-58W,1956-1961,95,National Ocean Service
570,708A,Axxx,334,"Salvador,USCGS",Brazil,12-58S,038-31W,1955-1964,92,National Ocean Service
571,708B,Axxx,334,Salvador-B,Brazil,12-58S,038-31W,2004-2017,100,UHSLC/DHN/IBGE
572,709A,Axxx,195,"R.Janeiro,USCGS",Brazil,22-56S,043-08W,1955-1968,70,National Ocean Service
573,710A,Axxx,xxx,Suape,Brazil,08-21S,034-57W,1982-1984,98,LPAO/INPE
574,711A,Axxx,xxx,Luis Corriea,Brazil,02-52S,041-40W,1984-1985,100,LPAO/INPE
575,712A,Axxx,xxx,"Recife,USCGS",Brazil,08-03S,034-52W,1955-1968,86,National Ocean Service
576,714A,Axxx,193,Porto Rio Grande,Brazil,32-06S,052-06W,1981-2003,22,Dir. Hidro. e Navegaca
577,715A,Axxx,200,Madeira,Brazil,02-34S,044-23W,1988-2003,85,Dir. Hidro. e Navegaca
578,716A,Axxx,xxx,Santana-A,Brazil,00-03S,051-11W,1970-1972,100,Dir. Hidro. e Navegaca
579,716B,Axxx,xxx,Santana-B,Brazil,00-03S,051-11W,1975-1976,100,Dir. Hidro. e Navegaca
580,716C,Axxx,xxx,Santana-C,Brazil,00-03S,051-11W,1984-1985,100,Dir. Hidro. e Navegaca
581,716D,Axxx,xxx,Santana-D,Brazil,00-03S,051-11W,1996-1997,100,Dir. Hidro. e Navegaca
582,716E,Axxx,xxx,Santana-E,Brazil,00-04S,051-10W,2006-2007,93,IBGE
583,717A,Axxx,xxx,Santana SSN-A,Brazil,00-04S,051-10W,1994-1995,99,Dir. Hidro. e Navegaca
584,717B,Axxx,xxx,Santana SSN-B,Brazil,00-04S,051-10W,1999-2000,99,Dir. Hidro. e Navegaca
585,718A,Axxx,351,Imbituba,Brazil,28-14S,048-39W,2001-2010,86,IBGE
586,719A,Axxx,352,Macae,Brazil,22-14S,041-28W,2001-2008,88,IBGE
587,720A,Axxx,xxx,South Caicos,United Kingdom,21-29N,071-32W,1992-1992,76,NOAA/AOML
588,721A,Axxx,213,"Progreso-A, Yuc.",Mexico,21-17N,089-40W,1980-1984,98,UNAM
589,721B,Axxx,213,"Progreso-B, Yuc.",Mexico,21-17N,089-40W,1999-2004,63,Secretaria de Marina
590,721C,Axxx,213,"Progreso-C, Yuc.",Mexico,21-18N,089-40W,2012-2013,93,UNAM
591,722A,Axxx,266,Tristan da Cunha,United Kingdom,37-03S,012-18W,2011-2013,74,NOC
592,723A,Axxx,xxx,"Lagos, Algarve",Portugal,37-06N,008-40W,1986-2000,72,Inst. Geogr. Port.
593,724A,Axxx,xxx,Puerto Cabezas,Nicaragua,14-03N,083-23W,2001-2002,100,National Ocean Service
594,727A,Axxx,xxx,Nassau,Bahamas,25-05N,077-21W,1904-1905,100,National Ocean Service
595,728A,Axxx,xxx,Point Fortin,Trinidad/Tobago,10-06N,061-25W,1987-1996,61,Trin/Tob. Hydro. Unit
596,729A,Axxx,192,Mar Del Plata-A,Argentina,38-03S,057-33W,2004-2009,98,UH Sea Level Center
597,729B,Axxx,192,Mar Del Plata-B,Argentina,38-02S,057-32W,2010-2017,97,UH Sea Level Center
598,730A,Axxx,189,Base Prat-A,Chile,62-29S,059-38W,1984-2002,96,SHOA
599,730B,Axxx,189,Base Prat-B,Chile,62-29S,059-40W,2010-2013,64,SHOA
600,731A,Axxx,191,Puerto Madryn,Argentina,42-46S,065-02W,2010-2017,99,UH Sea Level Center
601,732A,Axxx,xxx,"Isabel Segunda,PR",USA,18-09N,065-27W,2009-2016,90,National Ocean Service
602,733A,Axxx,xxx,"Esperanza,PR",USA,18-06N,065-28W,2005-2016,90,National Ocean Service
603,734A,Axxx,xxx,"Yabucoa,PR",USA,18-03N,065-50W,2008-2016,95,National Ocean Service
604,735A,Axxx,xxx,"Arecibo,PR",USA,18-29N,066-42W,2008-2016,96,National Ocean Service
605,736A,Axxx,xxx,"Mayaguez,PR",USA,18-13N,067-10W,2008-2016,100,National Ocean Service
606,737A,Axxx,xxx,San Andres,Colombia,12-34N,081-42W,1997-2017,67,IDEAM
607,738A,Axxx,xxx,Santa Marta,Colombia,11-14N,074-13W,2012-2017,87,UH Sea Level Center
608,739A,Axxx,xxx,El Porvenir,Panama,09-34N,078-57W,2012-2017,100,UH Sea Level Center
609,740A,Axxx,xxx,"Eastport,ME",USA,44-54N,066-59W,1929-2016,94,National Ocean Service
610,741A,Axxx,xxx,"Boston,MA",USA,42-21N,071-03W,1921-2016,99,National Ocean Service
611,742A,Axxx,xxx,"Woods Hole,MA",USA,41-31N,070-40W,1957-2016,91,National Ocean Service
612,743A,Axxx,xxx,"Nantucket,MA",USA,41-17N,070-06W,1965-2016,96,National Ocean Service
613,744A,Axxx,xxx,"New London,CT",USA,41-21N,072-05W,1938-2016,95,National Ocean Service
614,745A,Axxx,xxx,"New York,NY",USA,40-42N,074-01W,1920-2016,87,National Ocean Service
615,746A,Axxx,xxx,"Cape May,NJ",USA,38-58N,074-58W,1965-2016,91,National Ocean Service
616,747A,Axxx,xxx,"Lewes,DE",USA,38-47N,075-07W,1957-2016,97,National Ocean Service
617,749A,Axxx,xxx,"Chesapeake BBT,VA",USA,36-58N,076-07W,1975-2016,100,National Ocean Service
618,750A,Axxx,xxx,"Wilmington,NC",USA,34-14N,077-57W,1935-2016,98,National Ocean Service
619,752A,Axxx,289,"Fort Pulaski,GA",USA,32-02N,080-54W,1935-2016,96,National Ocean Service
620,753A,Axxx,xxx,"Mayport,FL",USA,30-24N,081-26W,1928-2000,99,National Ocean Service
621,754A,Axxx,xxx,"Cocoa Beach,FL",USA,28-22N,080-36W,1994-1996,98,National Ocean Service
622,755A,Axxx,332,"Virginia Key,FL",USA,25-44N,080-10W,1994-2016,99,National Ocean Service
623,757A,Axxx,xxx,"Naples,FL",USA,26-08N,081-48W,1965-2016,97,National Ocean Service
624,759A,Axxx,xxx,"St. Petersburg,FL",USA,27-46N,082-38W,1946-2016,97,National Ocean Service
625,760A,Axxx,xxx,"Apalachicola,FL",USA,29-44N,084-59W,1976-2016,99,National Ocean Service
626,761A,Axxx,xxx,"Panama City Bh,FL",USA,30-13N,085-53W,1993-2016,75,National Ocean Service
627,762A,Axxx,288,"Pensacola,FL",USA,30-24N,087-13W,1923-2016,96,National Ocean Service
628,763A,Axxx,xxx,Dauphin Island AL,USA,30-15N,088-05W,1996-2016,78,National Ocean Service
629,764A,Axxx,xxx,"South Pass,LA",USA,28-59N,089-08W,1993-1999,90,National Ocean Service
630,765A,Axxx,xxx,"Grand Isle,LA",USA,29-16N,089-57W,1980-2016,97,National Ocean Service
631,766A,Axxx,xxx,"Sabine Pass N, TX",USA,29-44N,093-52W,1985-2016,98,National Ocean Service
632,767A,Axxx,xxx,"Galveston,P.Pier",USA,29-17N,094-47W,1957-2011,97,National Ocean Service
633,769A,Axxx,xxx,"Rockport,TX",USA,28-01N,097-03W,1937-2016,76,National Ocean Service
634,770A,Axxx,xxx,"Corpus Cristi,TX",USA,27-35N,097-13W,1983-2016,96,National Ocean Service
635,772A,Axxx,xxx,"Port Isabel,TX",USA,26-04N,097-13W,1977-2016,97,National Ocean Service
636,773A,Axxx,xxx,"Clearwater Bch,FL",USA,27-59N,082-50W,1996-2016,97,National Ocean Service
637,774A,Axxx,xxx,"Port Canaveral,FL",USA,28-25N,080-36W,1994-2016,98,National Ocean Service
638,775A,Axxx,217,"Galveston,Pier21",USA,29-19N,094-48W,1904-2016,97,National Ocean Service
639,776A,Axxx,xxx,Punta Cana,Dominica Republi,18-30N,068-23W,2010-2017,100,UH Sea Level Center
640,777A,Axxx,xxx,Puerto Plata,Dominica Republi,19-48N,070-42W,2010-2017,100,UH Sea Level Center
641,778A,Axxx,xxx,Willemstad,Curacao,12-06N,068-57W,2011-2012,100,UH Sea Level Center
642,779A,Axxx,xxx,C.Carmen,Mexico,18-32N,091-50W,1957-1979,57,UNAM
643,780A,Axxx,xxx,Puerto Cortes-A,Honduras,15-50N,087-57W,1948-1968,99,National Ocean Service
644,780B,Axxx,xxx,Puerto Cortes-B,Honduras,15-50N,087-52W,2001-2002,100,National Ocean Service
645,781A,Axxx,xxx,Belize,British Honduras,17-30N,088-11W,1964-1967,84,National Ocean Service
646,782A,Axxx,210,Port Royal,Jamaica,17-56N,076-51W,1965-1971,99,National Ocean Service
647,783A,Axxx,xxx,"Fajardo-A,PR",USA,18-20N,065-38W,1921-1923,95,National Ocean Service
648,783B,Axxx,xxx,"Fajardo-B,PR",USA,18-20N,065-38W,2008-2016,97,National Ocean Service
649,784A,Axxx,xxx,Puerto Castilla,Honduras,16-01N,086-02W,1955-1967,78,National Ocean Service
650,786A,Axxx,xxx,Roseau,Dominica,15-19N,061-23W,2011-2015,97,UH Sea Level Center
651,789A,Axxx,xxx,Prickley Bay,Grenada,12-00N,061-46W,2011-2017,97,UH Sea Level Center
652,799A,Axxx,209,Port-au-Prince,Haiti,18-34N,072-21W,2011-2017,97,UH Sea Level Center
653,800A,Axxx,322,Andenes,Norway,69-19N,16-09E,1991-2014,86,NHS
654,801A,Axxx,xxx,Honningsvag,Norway,70-59N,25-59E,1988-2014,95,NHS
655,802A,Axxx,xxx,Maloy,Norway,61-56N,05-07E,1986-2014,95,NHS
656,803A,Axxx,234,Rorvik,Norway,64-52N,11-15E,1969-2014,97,NHS
657,804A,Axxx,321,Tregde,Norway,58-00N,007-34E,1927-2008,94,NHS
658,805A,Axxx,323,Vardo,Norway,70-20N,31-06E,1947-2014,66,NHS
659,806A,Axxx,xxx,Nouakchott,Mauritania,17-59N,016-02W,2007-2015,92,NOC-UK
660,807A,Axxx,349,Alexandria,Egypt,31-13N,029-55E,2009-2016,91,NOC-UK
661,816A,Axxx,350,Port Sonara,Cameroon,04-00S,009-08E,2008-2011,83,SNR/D
662,819A,Axxx,233,Goteborg-Torsh.,Sweden,57-41N,011-47E,1967-2014,100,SMHI
663,822A,Axxx,242,Brest,France,48-23N,004-30W,1846-2016,92,SHOM
664,823A,Axxx,345,Ny-Alesund,Norway,78-56N,11-57E,1976-2014,92,NHS
665,824A,Axxx,205,Marseille,France,43-17N,005-21E,1849-2016,60,SHOM
666,825A,Axxx,284,Cuxhaven,Germany,53-52N,008-43E,1917-2016,100,BFG
667,826A,Axxx,341,Stockholm,Sweden,59-20N,018-05E,1889-2014,99,SMHI
668,830A,Axxx,243,La Coruna,Spain,43-22N,008-24W,1943-2013,97,Inst. Espanol Ocean.
669,832A,Axxx,342,Rothera,United Kingdom,67-34S,068-08W,2002-2011,74,NOC
670,833A,Axxx,224,Nain,Canada,56-33N,061-41W,1963-2015,45,MEDS
671,834A,Axxx,239,Malin Head,Ireland,55-22N,007-20W,1958-2001,95,QUB
672,835A,Axxx,xxx,Castletownsend,Ireland,51-32N,009-11W,2004-2008,87,J.Murphy HMRC
673,837A,Axxx,xxx,Gedser,Denmark,54-34N,011-56E,1891-2012,96,DMI
674,838A,Axxx,xxx,Hornbaek,Denmark,56-06N,012-28E,1891-2012,96,DMI
675,850A,Axxx,202,Ile Royale,France,05-17N,052-35W,1989-2016,36,SHOM
676,851A,Axxx,xxx,"Ile Royale,A.Leg.",France,05-17N,052-35W,1989-2007,43,SHOM
677,860A,Axxx,xxx,"Puerto Moreles,QR",Mexico,20-52N,086-52W,2007-2013,89,UNAM
678,861A,Axxx,xxx,"Celestun,Yuk.",Mexico,20-52N,090-24W,2010-2011,100,UNAM
679,862A,Axxx,xxx,"Telchac,Yuk.",Mexico,21-20N,089-19W,2011-2013,92,UNAM
680,878A,Axxx,xxx,Bullen Bay,Curacao,12-11N,069-01W,2013-2017,100,UH Sea Level Center
